NORAD_CAT_ID,OBJECT_NAME,OBJECT_TYPE,EPOCH,MEAN_MOTION,ECCENTRICITY,INCLINATION,RA_OF_ASC_NODE,ARG_OF_PERICENTER,MEAN_ANOMALY,BSTAR,MEAN_MOTION_DOT,MEAN_MOTION_DDOT,TLE_LINE0,TLE_LINE1,TLE_LINE2,SEMIMAJOR_AXIS,PERIOD,APOGEE,PERIGEE,DECAYED
55637.0,STARLINK-5062,PAYLOAD,2024-07-30 18:28:01,14.9832838,0.0003405,69.998,224.4003,268.6246,91.4523,-1.8778e-05,-3.17e-06,0.0,0 STARLINK-5062,1 55637U 23021K   24212.76945820 -.00000317  00000-0 -18778-4 0  9994,2 55637  69.9980 224.4003 0003405 268.6246  91.4523 14.98328380 80873,6950.198,96.107,574.429,569.696,0.0
55637.0,STARLINK-5062,PAYLOAD,2024-07-31 10:29:21,14.98330132,0.0003439,69.998,222.7169,268.0621,92.0144,-2.0982e-05,-3.43e-06,0.0,0 STARLINK-5062,1 55637U 23021K   24213.43705627 -.00000343  00000-0 -20982-4 0  9997,2 55637  69.9980 222.7169 0003439 268.0621  92.0144 14.98330132 80677,6950.192,96.107,574.448,569.667,0.0
55637.0,STARLINK-5062,PAYLOAD,2024-08-01 10:31:22,14.9835366,0.000329,69.998,220.1918,268.768,91.3102,-0.00045013,-5.463e-05,0.0,0 STARLINK-5062,1 55637U 23021K   24214.43845107 -.00005463  00000-0 -45013-3 0  9995,2 55637  69.9980 220.1918 0003290 268.7680  91.3102 14.98353660 80822,6950.12,96.105,574.271,569.698,0.0
55637.0,STARLINK-5062,PAYLOAD,2024-08-02 04:08:51,14.98324016,0.0003338,69.9982,218.34,266.5763,93.5014,1.1057e-05,3.9e-07,0.0,0 STARLINK-5062,1 55637U 23021K   24215.17281717  .00000039  00000-0  11057-4 0  9992,2 55637  69.9982 218.3400 0003338 266.5763  93.5014 14.98324016 80931,6950.211,96.107,574.396,569.756,0.0
55637.0,STARLINK-5062,PAYLOAD,2024-08-02 10:33:23,14.98323777,0.0003312,69.9985,217.6674,266.1874,93.8906,1.848e-05,1.27e-06,0.0,0 STARLINK-5062,1 55637U 23021K   24215.43985831  .00000127  00000-0  18480-4 0  9994,2 55637  69.9985 217.6674 0003312 266.1874  93.8906 14.98323777 81274,6950.212,96.107,574.379,569.775,0.0
55637.0,STARLINK-5062,PAYLOAD,2024-08-02 16:57:56,14.98323154,0.0003303,69.9986,216.994,266.5774,93.5007,1.8356e-05,1.26e-06,0.0,0 STARLINK-5062,1 55637U 23021K   24215.70689993  .00000126  00000-0  18356-4 0  9995,2 55637  69.9986 216.9940 0003303 266.5774  93.5007 14.98323154 81319,6950.214,96.107,574.375,569.783,0.0
55637.0,STARLINK-5062,PAYLOAD,2024-08-03 04:10:52,14.9832435,0.0003326,69.9986,215.8155,267.8851,92.1927,2.9937e-05,2.64e-06,0.0,0 STARLINK-5062,1 55637U 23021K   24216.17422059  .00000264  00000-0  29937-4 0  9995,2 55637  69.9986 215.8155 0003326 267.8851  92.1927 14.98324350 81089,6950.21,96.107,574.387,569.764,0.0
55637.0,STARLINK-5062,PAYLOAD,2024-08-03 08:59:16,14.98324845,0.0003314,69.9987,215.3106,267.9175,92.1604,3.4958e-05,3.24e-06,0.0,0 STARLINK-5062,1 55637U 23021K   24216.37450088  .00000324  00000-0  34958-4 0  9996,2 55637  69.9987 215.3106 0003314 267.9175  92.1604 14.98324845 81416,6950.209,96.107,574.377,569.771,0.0
55637.0,STARLINK-5062,PAYLOAD,2024-08-03 16:59:57,14.98326647,0.0003329,69.9988,214.4689,268.1971,91.8806,4.2639e-05,4.16e-06,0.0,0 STARLINK-5062,1 55637U 23021K   24216.70830041  .00000416  00000-0  42639-4 0  9991,2 55637  69.9988 214.4689 0003329 268.1971  91.8806 14.98326647 81463,6950.203,96.107,574.382,569.755,0.0
55637.0,STARLINK-5062,PAYLOAD,2024-08-04 05:49:01,14.98327991,0.0003332,69.9989,213.1226,266.7881,93.2897,5.9385e-05,6.16e-06,0.0,0 STARLINK-5062,1 55637U 23021K   24217.24238016  .00000616  00000-0  59385-4 0  9993,2 55637  69.9989 213.1226 0003332 266.7881  93.2897 14.98327991 81240,6950.199,96.107,574.38,569.748,0.0
55637.0,STARLINK-5062,PAYLOAD,2024-08-04 09:01:17,14.98329011,0.0003314,69.9989,212.7858,267.3595,92.7185,6.9533e-05,7.37e-06,0.0,0 STARLINK-5062,1 55637U 23021K   24217.37589943  .00000737  00000-0  69533-4 0  9995,2 55637  69.9989 212.7858 0003314 267.3595  92.7185 14.98329011 81569,6950.196,96.107,574.364,569.758,0.0
55637.0,STARLINK-5062,PAYLOAD,2024-08-04 17:01:58,14.98328501,0.0003322,69.999,211.9442,267.9669,92.111,5.5328e-05,5.67e-06,0.0,0 STARLINK-5062,1 55637U 23021K   24217.70970043  .00000567  00000-0  55328-4 0  9995,2 55637  69.9990 211.9442 0003322 267.9669  92.1110 14.98328501 81619,6950.198,96.107,574.371,569.754,0.0
55637.0,STARLINK-5062,PAYLOAD,2024-08-05 05:51:02,14.9832963,0.0003304,69.9989,210.5979,267.9148,92.1633,4.829e-05,4.83e-06,0.0,0 STARLINK-5062,1 55637U 23021K   24218.24378063  .00000483  00000-0  48290-4 0  9996,2 55637  69.9989 210.5979 0003304 267.9148  92.1633 14.98329630 81398,6950.194,96.107,574.355,569.763,0.0
55637.0,STARLINK-5062,PAYLOAD,2024-08-05 17:03:59,14.98327726,0.0003344,69.9987,209.4192,269.0156,91.062,4.2387e-06,-4.2e-07,0.0,0 STARLINK-5062,1 55637U 23021K   24218.71110266 -.00000042  00000-0  42387-5 0  9991,2 55637  69.9987 209.4192 0003344 269.0156  91.0620 14.98327726 81765,6950.2,96.107,574.389,569.741,0.0
55637.0,STARLINK-5062,PAYLOAD,2024-08-06 05:53:04,14.98325163,0.0003212,69.9991,208.0737,268.3753,91.7038,-4.2183e-05,-5.96e-06,0.0,0 STARLINK-5062,1 55637U 23021K   24219.24518694 -.00000596  00000-0 -42183-4 0  9995,2 55637  69.9991 208.0737 0003212 268.3753  91.7038 14.98325163 81548,6950.208,96.107,574.305,569.84,0.0
55637.0,STARLINK-5062,PAYLOAD,2024-08-06 07:29:12,14.98325599,0.0003202,69.9992,207.9055,268.4059,91.6733,-3.5793e-05,-5.2e-06,0.0,0 STARLINK-5062,1 55637U 23021K   24219.31194668 -.00000520  00000-0 -35793-4 0  9990,2 55637  69.9992 207.9055 0003202 268.4059  91.6733 14.98325599 81857,6950.207,96.107,574.297,569.846,0.0
55637.0,STARLINK-5062,PAYLOAD,2024-08-06 17:06:00,14.98328582,0.0003253,69.9992,206.8945,269.0775,91.0011,3.2674e-06,-5.4e-07,0.0,0 STARLINK-5062,1 55637U 23021K   24219.71250435 -.00000054  00000-0  32674-5 0  9996,2 55637  69.9992 206.8945 0003253 269.0775  91.0011 14.98328582 81916,6950.197,96.107,574.323,569.801,0.0
55637.0,STARLINK-5062,PAYLOAD,2024-08-07 04:18:56,14.98331643,0.000329,69.9989,205.7161,268.9932,91.085,4.2481e-05,4.14e-06,0.0,0 STARLINK-5062,1 55637U 23021K   24220.17982114  .00000414  00000-0  42481-4 0  9999,2 55637  69.9989 205.7161 0003290 268.9932  91.0850 14.98331643 81681,6950.188,96.107,574.339,569.766,0.0
55637.0,STARLINK-5062,PAYLOAD,2024-08-07 07:31:12,14.98334712,0.0003306,69.9989,205.3796,269.1899,90.8881,4.9582e-05,4.99e-06,0.0,0 STARLINK-5062,1 55637U 23021K   24220.31333881  .00000499  00000-0  49582-4 0  9998,2 55637  69.9989 205.3796 0003306 269.1899  90.8881 14.98334712 82002,6950.178,96.107,574.341,569.746,0.0
55637.0,STARLINK-5062,PAYLOAD,2024-08-08 09:09:21,14.983337,0.0003218,69.9993,202.6863,269.1212,90.9579,0.00012415,1.389e-05,0.0,0 STARLINK-5062,1 55637U 23021K   24221.38149680  .00001389  00000-0  12415-3 0  9991,2 55637  69.9993 202.6863 0003218 269.1212  90.9579 14.98333700 82161,6950.181,96.107,574.283,569.81,0.0
55637.0,STARLINK-5062,PAYLOAD,2024-08-08 21:58:26,14.98280306,0.0003267,69.9998,201.3412,264.7399,95.3387,0.00091429,0.00010819,0.0,0 STARLINK-5062,1 55637U 23021K   24221.91558671  .00010819  00000-0  91429-3 0  9994,2 55637  69.9998 201.3412 0003267 264.7399  95.3387 14.98280306 81947,6950.347,96.11,574.482,569.941,0.0
55637.0,STARLINK-5062,PAYLOAD,2024-08-09 04:22:58,14.98336809,0.0002967,69.9999,200.6677,268.9642,91.1177,-5.246e-05,-7.19e-06,0.0,0 STARLINK-5062,1 55637U 23021K   24222.18261817 -.00000719  00000-0 -52460-4 0  9990,2 55637  69.9999 200.6677 0002967 268.9642  91.1177 14.98336809 81981,6950.172,96.107,574.099,569.975,0.0
55637.0,STARLINK-5062,PAYLOAD,2024-08-09 09:11:22,14.98336138,0.0002907,70.0,200.1621,267.0527,93.03,4.831e-05,4.84e-06,0.0,0 STARLINK-5062,1 55637U 23021K   24222.38289547  .00000484  00000-0  48310-4 0  9998,2 55637  70.0000 200.1621 0002907 267.0527  93.0300 14.98336138 82319,6950.174,96.107,574.059,570.018,0.0
55637.0,STARLINK-5062,PAYLOAD,2024-08-09 15:35:55,14.98325516,0.0002518,70.0009,199.4879,268.3084,91.7787,7.5484e-05,8.08e-06,0.0,0 STARLINK-5062,1 55637U 23021K   24222.64994241  .00000808  00000-0  75484-4 0  9993,2 55637  70.0009 199.4879 0002518 268.3084  91.7787 14.98325516 82056,6950.207,96.107,573.822,570.322,0.0
55637.0,STARLINK-5062,PAYLOAD,2024-08-09 22:00:27,14.98329969,0.0002729,69.9999,198.8162,267.0563,93.0284,-2.6239e-05,-4.06e-06,0.0,0 STARLINK-5062,1 55637U 23021K   24222.91698146 -.00000406  00000-0 -26239-4 0  9998,2 55637  69.9999 198.8162 0002729 267.0563  93.0284 14.98329969 82391,6950.193,96.107,573.955,570.161,0.0
55637.0,STARLINK-5062,PAYLOAD,2024-08-10 07:37:15,14.98327362,0.0002705,70.0004,197.8061,259.7473,100.3381,-4.211e-05,-5.95e-06,0.0,0 STARLINK-5062,1 55637U 23021K   24223.31754330 -.00000595  00000-0 -42110-4 0  9996,2 55637  70.0004 197.8061 0002705 259.7473 100.3381 14.98327362 82452,6950.201,96.107,573.946,570.186,0.0
55637.0,STARLINK-5062,PAYLOAD,2024-08-11 02:50:52,14.98332116,0.0002891,69.9999,195.7868,267.3154,92.7674,5.1617e-05,5.23e-06,0.0,0 STARLINK-5062,1 55637U 23021K   24224.11865761  .00000523  00000-0  51617-4 0  9997,2 55637  69.9999 195.7868 0002891 267.3154  92.7674 14.98332116 82273,6950.186,96.107,574.061,570.042,0.0
55637.0,STARLINK-5062,PAYLOAD,2024-08-11 07:39:15,14.98339373,0.0002871,69.9998,195.2809,268.2922,91.7908,0.00011049,1.226e-05,0.0,0 STARLINK-5062,1 55637U 23021K   24224.31893134  .00001226  00000-0  11049-3 0  9999,2 55637  69.9998 195.2809 0002871 268.2922  91.7908 14.98339373 82308,6950.164,96.106,574.024,570.034,0.0
55637.0,STARLINK-5062,PAYLOAD,2024-08-11 15:39:56,14.9833544,0.0002552,70.0015,194.4389,275.739,84.3478,8.1306e-05,8.77e-06,0.0,0 STARLINK-5062,1 55637U 23021K   24224.65273486  .00000877  00000-0  81306-4 0  9993,2 55637  70.0015 194.4389 0002552 275.7390  84.3478 14.98335440 82359,6950.176,96.107,573.815,570.267,0.0
55637.0,STARLINK-5062,PAYLOAD,2024-08-11 22:04:28,14.98324339,0.0002954,70.0009,193.7639,272.0467,88.0354,0.00019781,2.268e-05,0.0,0 STARLINK-5062,1 55637U 23021K   24224.91977731  .00002268  00000-0  19781-3 0  9999,2 55637  70.0009 193.7639 0002954 272.0467  88.0354 14.98324339 82699,6950.21,96.107,574.128,570.022,0.0
